STARLINK-31795          
1 59645U 24082Q   26068.05831699  .00001819  00000+0  75591-4 0  9997
2 59645  43.0025  84.8034 0001377 283.4360  76.6339 15.27584811105389
FLOCK 4G-6              
1 62660U 25009BD  26068.71061311  .00012261  00000+0  45910-3 0  9991
2 62660  97.3980 150.7943 0002380 348.2637  11.8546 15.27432125121307
